export const SAMPLE_METAR_STRINGS = {
  kjfk: "METAR KJFK 172151Z 18012KT 10SM FEW025 SCT045 27/18 A2992 RMK AO2",
  klax: "METAR KLAX 172153Z 25008KT 10SM FEW012 20/16 A2995 RMK AO2",
  stale: "METAR KSEA 171900Z 19007KT 10SM SCT030 19/11 A3005 RMK AO2"
} as const;

export const SAMPLE_TAF_STRING =
  "TAF KJFK 171720Z 1718/1824 18012KT P6SM SCT030 FM180400 20008KT P6SM BKN040";
